GLOBALSTAR M075 [+]     
1 37192U 10054E   23229.81057707 -.00000095  00000+0  48605-4 0  9996
2 37192  51.9952  59.6410 0000589  78.9994 293.7395 12.62260329591846
GLOBALSTAR M073 [+]     
1 37193U 10054F   23229.68194628 -.00000085  00000+0  10198-3 0  9990
2 37193  52.0077 333.3438 0000695 106.4033  40.9070 12.62266366593333
GLOBALSTAR M083 [+]     
1 37739U 11033A   23229.85863869 -.00000079  00000+0  14077-3 0  9996
2 37739  51.9846 282.4526 0000609 141.5973  29.8426 12.62268756562681
GLOBALSTAR M088 [+]     
1 37740U 11033B   23229.09976428 -.00000125  00000+0 -11668-3 0  9996
2 37740  51.9712 190.8159 0000067 196.9885 244.1682 12.62264776558064
GLOBALSTAR M091 [+]     
1 37741U 11033C   23229.29079750 -.00000104  00000+0  15725-6 0  9998
2 37741  51.9989 152.5915 0000128  57.0580 112.0520 12.62265485558841
GLOBALSTAR M085 [+]     
1 37742U 11033D   23229.72502630 -.00000076  00000+0  15564-3 0  9991
2 37742  51.9861 102.9004 0000535  79.9553 324.1250 12.62266472559646
GLOBALSTAR M081 [+]     
1 37743U 11033E   23229.74863816 -.00000069  00000+0  19602-3 0  9999
2 37743  51.9955 105.2033 0000403  48.9753 341.8027 12.62270224559683
GLOBALSTAR M089 [+]     
1 37744U 11033F   23229.78465860 -.00000093  00000+0  58804-4 0  9996
2 37744  51.9935  59.4466 0000857  61.2825 313.2145 12.62266234560405
